{
  "type": "FeatureCollection",
  "features": [
    {
      "type": "Feature",
      "properties": {
        "norad_id": 29268,
        "name": "ARIRANG-2 (KOMPSAT-2)",
        "group": "resource",
        "lat": 40.792082380238625,
        "lon": 170.705054226673,
        "alt_km": 677.1422398110744,
        "timestamp": "2025-12-15T04:01:20.099245+00:00",
        "meta_object_name": "ARIRANG-2 (KOMPSAT-2)",
        "meta_object_id": "2006-031A",
        "meta_epoch": "2025-12-14T08:43:15.155040",
        "meta_mean_motion": 14.64495923,
        "meta_eccentricity": 0.00134457,
        "meta_inclination": 97.8265,
        "meta_ra_of_asc_node": 176.757,
        "meta_arg_of_pericenter": 303.7051,
        "meta_mean_anomaly": 180.0187,
        "meta_ephemeris_type": 0,
        "meta_classification_type": "U",
        "meta_norad_cat_id": 29268,
        "meta_element_set_no": 999,
        "meta_rev_at_epoch": 3442,
        "meta_bstar": 0.00012611439,
        "meta_mean_motion_dot": 6.24e-06,
        "meta_mean_motion_ddot": 0,
        "tle_line1": "1 29268U 06031A   25348.36336985  .00000624  00000+0  12611-3 0  9997",
        "tle_line2": "2 29268  97.8265 176.7570 0013445 303.7051 180.0187 14.64495923 34420"
      },
      "geometry": {
        "type": "Point",
        "coordinates": [
          170.705054226673,
          40.792082380238625
        ]
      }
    },
    {
      "type": "Feature",
      "properties": {
        "norad_id": 29709,
        "name": "LAPAN-TUBSAT",
        "group": "resource",
        "lat": 18.862074893065554,
        "lon": 162.1720228836425,
        "alt_km": 612.4063925188902,
        "timestamp": "2025-12-15T04:01:20.099268+00:00",
        "meta_object_name": "LAPAN-TUBSAT",
        "meta_object_id": "2007-001A",
        "meta_epoch": "2025-12-14T07:54:18.372384",
        "meta_mean_motion": 14.85674735,
        "meta_eccentricity": 0.00135614,
        "meta_inclination": 98.126,
        "meta_ra_of_asc_node": 338.5186,
        "meta_arg_of_pericenter": 69.4249,
        "meta_mean_anomaly": 290.8419,
        "meta_ephemeris_type": 0,
        "meta_classification_type": "U",
        "meta_norad_cat_id": 29709,
        "meta_element_set_no": 999,
        "meta_rev_at_epoch": 2370,
        "meta_bstar": 0.00016278181,
        "meta_mean_motion_dot": 1.356e-05,
        "meta_mean_motion_ddot": 0,
        "tle_line1": "1 29709U 07001A   25348.32937931  .00001356  00000+0  16278-3 0  9995",
        "tle_line2": "2 29709  98.1260 338.5186 0013561  69.4249 290.8419 14.85674735 23704"
      },
      "geometry": {
        "type": "Point",
        "coordinates": [
          162.1720228836425,
          18.862074893065554
        ]
      }
    },
    {
      "type": "Feature",
      "properties": {
        "norad_id": 31113,
        "name": "HAIYANG-1B",
        "group": "resource",
        "lat": -70.00889516283632,
        "lon": -2.900739623666705,
        "alt_km": 797.9849771807585,
        "timestamp": "2025-12-15T04:01:20.099284+00:00",
        "meta_object_name": "HAIYANG-1B",
        "meta_object_id": "2007-010A",
        "meta_epoch": "2025-12-13T22:09:00.193824",
        "meta_mean_motion": 14.30965522,
        "meta_eccentricity": 0.00142076,
        "meta_inclination": 98.3315,
        "meta_ra_of_asc_node": 332.1521,
        "meta_arg_of_pericenter": 34.6099,
        "meta_mean_anomaly": 325.6007,
        "meta_ephemeris_type": 0,
        "meta_classification_type": "U",
        "meta_norad_cat_id": 31113,
        "meta_element_set_no": 999,
        "meta_rev_at_epoch": 97413,
        "meta_bstar": 8.7561363e-05,
        "meta_mean_motion_dot": 1.89e-06,
        "meta_mean_motion_ddot": 0,
        "tle_line1": "1 31113U 07010A   25347.92291891  .00000189  00000+0  87561-4 0  9997",
        "tle_line2": "2 31113  98.3315 332.1521 0014207  34.6099 325.6007 14.30965522974136"
      },
      "geometry": {
        "type": "Point",
        "coordinates": [
          -2.900739623666705,
          -70.00889516283632
        ]
      }
    },
    {
      "type": "Feature",
      "properties": {
        "norad_id": 31598,
        "name": "COSMO-SKYMED 1",
        "group": "resource",
        "lat": -24.734478078322834,
        "lon": -9.077736967350276,
        "alt_km": 585.981620521492,
        "timestamp": "2025-12-15T04:01:20.099296+00:00",
        "meta_object_name": "COSMO-SKYMED 1",
        "meta_object_id": "2007-023A",
        "meta_epoch": "2025-12-14T07:50:35.651328",
        "meta_mean_motion": 14.95780283,
        "meta_eccentricity": 0.00013582,
        "meta_inclination": 97.8834,
        "meta_ra_of_asc_node": 173.7361,
        "meta_arg_of_pericenter": 90.4221,
        "meta_mean_anomaly": 269.7155,
        "meta_ephemeris_type": 0,
        "meta_classification_type": "U",
        "meta_norad_cat_id": 31598,
        "meta_element_set_no": 999,
        "meta_rev_at_epoch": 214,
        "meta_bstar": 0.00042066579,
        "meta_mean_motion_dot": 4.634e-05,
        "meta_mean_motion_ddot": 0,
        "tle_line1": "1 31598U 07023A   25348.32680152  .00004634  00000+0  42067-3 0  9995",
        "tle_line2": "2 31598  97.8834 173.7361 0001358  90.4221 269.7155 14.95780283  2149"
      },
      "geometry": {
        "type": "Point",
        "coordinates": [
          -9.077736967350276,
          -24.734478078322834
        ]
      }
    },
    {
      "type": "Feature",
      "properties": {
        "norad_id": 31698,
        "name": "TERRASAR-X",
        "group": "resource",
        "lat": 63.60784777271117,
        "lon": -20.768219673127767,
        "alt_km": 501.05901003906456,
        "timestamp": "2025-12-15T04:01:20.099307+00:00",
        "meta_object_name": "TERRASAR-X",
        "meta_object_id": "2007-026A",
        "meta_epoch": "2025-12-13T12:13:05.117664",
        "meta_mean_motion": 15.19151549,
        "meta_eccentricity": 0.00017647,
        "meta_inclination": 97.4456,
        "meta_ra_of_asc_node": 352.8775,
        "meta_arg_of_pericenter": 89.7934,
        "meta_mean_anomaly": 270.3503,
        "meta_ephemeris_type": 0,
        "meta_classification_type": "U",
        "meta_norad_cat_id": 31698,
        "meta_element_set_no": 999,
        "meta_rev_at_epoch": 2503,
        "meta_bstar": 0.00010409632,
        "meta_mean_motion_dot": 2.12e-05,
        "meta_mean_motion_ddot": 0,
        "tle_line1": "1 31698U 07026A   25347.50908701  .00002120  00000+0  10410-3 0  9996",
        "tle_line2": "2 31698  97.4456 352.8775 0001764  89.7934 270.3503 15.19151549 25030"
      },
      "geometry": {
        "type": "Point",
        "coordinates": [
          -20.768219673127767,
          63.60784777271117
        ]
      }
    },
    {
      "type": "Feature",
      "properties": {
        "norad_id": 32060,
        "name": "WORLDVIEW-1 (WV-1)",
        "group": "resource",
        "lat": 64.41963304919457,
        "lon": -57.66985257243886,
        "alt_km": 484.752584297481,
        "timestamp": "2025-12-15T04:01:20.099319+00:00",
        "meta_object_name": "WORLDVIEW-1 (WV-1)",
        "meta_object_id": "2007-041A",
        "meta_epoch": "2025-12-14T07:02:45.883968",
        "meta_mean_motion": 15.24724364,
        "meta_eccentricity": 8.098e-05,
        "meta_inclination": 97.3831,
        "meta_ra_of_asc_node": 105.7522,
        "meta_arg_of_pericenter": 111.4383,
        "meta_mean_anomaly": 248.6941,
        "meta_ephemeris_type": 0,
        "meta_classification_type": "U",
        "meta_norad_cat_id": 32060,
        "meta_element_set_no": 999,
        "meta_rev_at_epoch": 1471,
        "meta_bstar": 0.00039891598,
        "meta_mean_motion_dot": 9.806e-05,
        "meta_mean_motion_ddot": 0,
        "tle_line1": "1 32060U 07041A   25348.29358662  .00009806  00000+0  39892-3 0  9992",
        "tle_line2": "2 32060  97.3831 105.7522 0000809 111.4383 248.6941 15.24724364 14719"
      },
      "geometry": {
        "type": "Point",
        "coordinates": [
          -57.66985257243886,
          64.41963304919457
        ]
      }
    },
    {
      "type": "Feature",
      "properties": {
        "norad_id": 32289,
        "name": "YAOGAN-3",
        "group": "resource",
        "lat": 2.490342350910646,
        "lon": 15.42796874881317,
        "alt_km": 600.7828508275188,
        "timestamp": "2025-12-15T04:01:20.099329+00:00",
        "meta_object_name": "YAOGAN-3",
        "meta_object_id": "2007-055A",
        "meta_epoch": "2025-12-14T08:40:06.827232",
        "meta_mean_motion": 14.89868823,
        "meta_eccentricity": 0.00013241,
        "meta_inclination": 97.8371,
        "meta_ra_of_asc_node": 14.972,
        "meta_arg_of_pericenter": 79.3413,
        "meta_mean_anomaly": 280.7953,
        "meta_ephemeris_type": 0,
        "meta_classification_type": "U",
        "meta_norad_cat_id": 32289,
        "meta_element_set_no": 999,
        "meta_rev_at_epoch": 97833,
        "meta_bstar": 0.00028639135,
        "meta_mean_motion_dot": 2.697e-05,
        "meta_mean_motion_ddot": 0,
        "tle_line1": "1 32289U 07055A   25348.36119013  .00002697  00000+0  28639-3 0  9991",
        "tle_line2": "2 32289  97.8371  14.9720 0001324  79.3413 280.7953 14.89868823978332"
      },
      "geometry": {
        "type": "Point",
        "coordinates": [
          15.42796874881317,
          2.490342350910646
        ]
      }
    }
  ]
}